{
    "links": {
        "self": "http://www.neowsapp.com/rest/v1/neo/3661547?api_key=iIulBulltgU6a56xZRHN4H3l9WmuAYTsLGpBGhQ2"
    },
    "id": "3661547",
    "neo_reference_id": "3661547",
    "name": "(2014 DC)",
    "designation": "2014 DC",
    "nasa_jpl_url": "http://ssd.jpl.nasa.gov/sbdb.cgi?sstr=3661547",
    "absolute_magnitude_h": 26.7,
    "estimated_diameter": {
        "kilometers": {
            "estimated_diameter_min": 0.0121494041,
            "estimated_diameter_max": 0.0271668934
        },
        "meters": {
            "estimated_diameter_min": 12.14940408,
            "estimated_diameter_max": 27.1668934089
        },
        "miles": {
            "estimated_diameter_min": 0.0075492874,
            "estimated_diameter_max": 0.0168807197
        },
        "feet": {
            "estimated_diameter_min": 39.8602508817,
            "estimated_diameter_max": 89.1302305717
        }
    },
    "is_potentially_hazardous_asteroid": false,
    "close_approach_data": [
        {
            "close_approach_date": "2010-04-02",
            "close_approach_date_full": "2010-Apr-02 10:57",
            "epoch_date_close_approach": 1270205820000,
            "relative_velocity": {
                "kilometers_per_second": "20.7824263814",
                "kilometers_per_hour": "74816.7349731703",
                "miles_per_hour": "46488.2095726346"
            },
            "miss_distance": {
                "astronomical": "0.4131632625",
                "lunar": "160.7205091125",
                "kilometers": "61808344.032250875",
                "miles": "38405924.075277075"
            },
            "orbiting_body": "Earth"
        },
        {
            "close_approach_date": "2014-02-16",
            "close_approach_date_full": "2014-Feb-16 15:34",
            "epoch_date_close_approach": 1392564840000,
            "relative_velocity": {
                "kilometers_per_second": "8.0755343169",
                "kilometers_per_hour": "29071.9235409149",
                "miles_per_hour": "18064.1627135201"
            },
            "miss_distance": {
                "astronomical": "0.0146258157",
                "lunar": "5.6894423073",
                "kilometers": "2187990.875732559",
                "miles": "1359554.4868009542"
            },
            "orbiting_body": "Earth"
        },
        {
            "close_approach_date": "2017-12-25",
            "close_approach_date_full": "2017-Dec-25 17:45",
            "epoch_date_close_approach": 1514223900000,
            "relative_velocity": {
                "kilometers_per_second": "13.4680703317",
                "kilometers_per_hour": "48485.0531939753",
                "miles_per_hour": "30126.7265248898"
            },
            "miss_distance": {
                "astronomical": "0.1775534124",
                "lunar": "69.0682774236",
                "kilometers": "26561612.306271588",
                "miles": "16504620.5576923944"
            },
            "orbiting_body": "Earth"
        },
        {
            "close_approach_date": "2147-03-12",
            "close_approach_date_full": "2147-Mar-12 20:50",
            "epoch_date_close_approach": 5591710200000,
            "relative_velocity": {
                "kilometers_per_second": "11.2332356611",
                "kilometers_per_hour": "40439.6483800637",
                "miles_per_hour": "25127.624850379"
            },
            "miss_distance": {
                "astronomical": "0.0719878089",
                "lunar": "28.0032576621",
                "kilometers": "10769222.877407043",
                "miles": "6691684.7984734734"
            },
            "orbiting_body": "Earth"
        },
        {
            "close_approach_date": "2150-12-19",
            "close_approach_date_full": "2150-Dec-19 14:25",
            "epoch_date_close_approach": 5710746300000,
            "relative_velocity": {
                "kilometers_per_second": "15.6486330145",
                "kilometers_per_hour": "56335.0788522932",
                "miles_per_hour": "35004.427190193"
            },
            "miss_distance": {
                "astronomical": "0.2114888468",
                "lunar": "82.2691614052",
                "kilometers": "31638281.010036316",
                "miles": "19659116.2143045208"
            },
            "orbiting_body": "Earth"
        }
    ],
    "orbital_data": {
        "orbit_id": "10",
        "orbit_determination_date": "2017-08-10 06:18:02",
        "first_observation_date": "2014-02-05",
        "last_observation_date": "2014-02-28",
        "data_arc_in_days": 23,
        "observations_used": 42,
        "orbit_uncertainty": "7",
        "minimum_orbit_intersection": ".00586315",
        "jupiter_tisserand_invariant": "3.188",
        "epoch_osculation": "2459000.5",
        "eccentricity": ".6046842158929376",
        "semi_major_axis": "2.495942415725369",
        "inclination": "1.536552888102175",
        "ascending_node_longitude": "152.3314545176601",
        "orbital_period": "1440.291073426952",
        "perihelion_distance": ".9866854331585495",
        "perihelion_argument": "341.4772158237874",
        "aphelion_distance": "4.005199398292188",
        "perihelion_time": "2459579.550491796341",
        "mean_anomaly": "215.2666326323274",
        "mean_motion": ".2499494766314389",
        "equinox": "J2000",
        "orbit_class": {
            "orbit_class_type": "APO",
            "orbit_class_description": "Near-Earth asteroid orbits which cross the Earth’s orbit similar to that of 1862 Apollo",
            "orbit_class_range": "a (semi-major axis) > 1.0 AU; q (perihelion) < 1.017 AU"
        }
    },
    "is_sentry_object": false
}